start=new Date('2022-08-09T00:00:00.000Z').valueOf();
sats=[{"CENTER_NAME":"EARTH","MEAN_ELEMENT_THEORY":"SGP4","MEAN_MOTION":"15.06410029","SITE":"AFETR","RCS_SIZE":"LARGE","PERIAPSIS":"546.144","COUNTRY_CODE":"US","REV_AT_EPOCH":"7891","TIME_SYSTEM":"UTC","TLE_LINE2":"2 47897  53.0574  27.6640 0001500  89.6719 270.4442 15.06410029 78918","BSTAR":"0.00020062000000","FILE":"3532305","REF_FRAME":"TEME","TLE_LINE1":"1 47897U 21021AP  22220.75092208  .00002709  00000-0  20062-3 0  9993","ELEMENT_SET_NO":"999","NORAD_CAT_ID":"47897","ARG_OF_PERICENTER":"89.6719","MEAN_MOTION_DOT":"0.00002709","ECCENTRICITY":"0.00015000","PERIOD":"95.592","DECAY_DATE":null,"OBJECT_ID":"2021-021AP","INCLINATION":"53.0574","SEMIMAJOR_AXIS":"6925.318","CLASSIFICATION_TYPE":"U","OBJECT_TYPE":"PAYLOAD","MEAN_ANOMALY":"270.4442","RA_OF_ASC_NODE":"27.6640","LAUNCH_DATE":"2021-03-14","EPHEMERIS_TYPE":"0","OBJECT_NAME":"STARLINK-2357","GP_ID":"209861936","EPOCH":"2022-08-08T18:01:19.667712","APOAPSIS":"548.222","MEAN_MOTION_DDOT":"0.0000000000000"},{"ELEMENT_SET_NO":"999","TLE_LINE1":"1 47898U 21021AQ  22220.87718632  .00004269  00000-0  30517-3 0  9992","FILE":"3532305","BSTAR":"0.00030517000000","REF_FRAME":"TEME","TLE_LINE2":"2 47898  53.0547  27.1158 0001236  90.8197 269.2934 15.06413909 78875","REV_AT_EPOCH":"7887","TIME_SYSTEM":"UTC","COUNTRY_CODE":"US","PERIAPSIS":"546.315","RCS_SIZE":"LARGE","MEAN_ELEMENT_THEORY":"SGP4","CENTER_NAME":"EARTH","SITE":"AFETR","MEAN_MOTION":"15.06413909","APOAPSIS":"548.027","MEAN_MOTION_DDOT":"0.0000000000000","GP_ID":"209860684","OBJECT_NAME":"STARLINK-2358","EPOCH":"2022-08-08T21:03:08.898048","LAUNCH_DATE":"2021-03-14","EPHEMERIS_TYPE":"0","RA_OF_ASC_NODE":"27.1158","SEMIMAJOR_AXIS":"6925.306","MEAN_ANOMALY":"269.2934","OBJECT_TYPE":"PAYLOAD","CLASSIFICATION_TYPE":"U","OBJECT_ID":"2021-021AQ","PERIOD":"95.591","DECAY_DATE":null,"INCLINATION":"53.0547","ECCENTRICITY":"0.00012360","ARG_OF_PERICENTER":"90.8197","NORAD_CAT_ID":"47898","MEAN_MOTION_DOT":"0.00004269"},{"SEMIMAJOR_AXIS":"6925.312","CLASSIFICATION_TYPE":"U","OBJECT_TYPE":"PAYLOAD","MEAN_ANOMALY":"267.3564","DECAY_DATE":null,"PERIOD":"95.591","OBJECT_ID":"2021-021AR","INCLINATION":"53.0553","ECCENTRICITY":"0.00014430","NORAD_CAT_ID":"47899","ARG_OF_PERICENTER":"92.7590","MEAN_MOTION_DOT":"0.00002071","APOAPSIS":"548.176","MEAN_MOTION_DDOT":"0.0000000000000","OBJECT_NAME":"STARLINK-2359","GP_ID":"209836031","EPOCH":"2022-08-08T19:22:15.841056","LAUNCH_DATE":"2021-03-14","EPHEMERIS_TYPE":"0","RA_OF_ASC_NODE":"17.4082","COUNTRY_CODE":"US","PERIAPSIS":"546.178","RCS_SIZE":"LARGE","MEAN_ELEMENT_THEORY":"SGP4","CENTER_NAME":"EARTH","SITE":"AFETR","MEAN_MOTION":"15.06411936","FILE":"3532143","BSTAR":"0.00015784000000","REF_FRAME":"TEME","TLE_LINE1":"1 47899U 21021AR  22220.80712779  .00002071  00000-0  15784-3 0  9990","ELEMENT_SET_NO":"999","TLE_LINE2":"2 47899  53.0553  17.4082 0001443  92.7590 267.3564 15.06411936 78583","REV_AT_EPOCH":"7858","TIME_SYSTEM":"UTC"},{"APOAPSIS":"548.106","MEAN_MOTION_DDOT":"0.0000000000000","OBJECT_NAME":"STARLINK-2360","GP_ID":"209861186","EPOCH":"2022-08-08T19:58:06.220416","LAUNCH_DATE":"2021-03-14","EPHEMERIS_TYPE":"0","RA_OF_ASC_NODE":"27.3159","SEMIMAJOR_AXIS":"6925.340","CLASSIFICATION_TYPE":"U","OBJECT_TYPE":"PAYLOAD","MEAN_ANOMALY":"282.9626","DECAY_DATE":null,"PERIOD":"95.592","OBJECT_ID":"2021-021AS","INCLINATION":"53.0556","ECCENTRICITY":"0.00013010","NORAD_CAT_ID":"47900","ARG_OF_PERICENTER":"77.1508","MEAN_MOTION_DOT":"0.00002429","REF_FRAME":"TEME","FILE":"3532305","BSTAR":"0.00018190000000","ELEMENT_SET_NO":"999","TLE_LINE1":"1 47900U 21021AS  22220.83201644  .00002429  00000-0  18190-3 0  9991","TLE_LINE2":"2 47900  53.0556  27.3159 0001301  77.1508 282.9626 15.06402760 78928","REV_AT_EPOCH":"7892","TIME_SYSTEM":"UTC","COUNTRY_CODE":"US","PERIAPSIS":"546.304","RCS_SIZE":"LARGE","MEAN_ELEMENT_THEORY":"SGP4","CENTER_NAME":"EARTH","SITE":"AFETR","MEAN_MOTION":"15.06402760"},{"COUNTRY_CODE":"US","PERIAPSIS":"546.335","RCS_SIZE":"LARGE","MEAN_ELEMENT_THEORY":"SGP4","CENTER_NAME":"EARTH","SITE":"AFETR","MEAN_MOTION":"15.06408704","FILE":"3532305","REF_FRAME":"TEME","BSTAR":"0.00011065000000","ELEMENT_SET_NO":"999","TLE_LINE1":"1 47901U 21021AT  22220.73069023  .00001367  00000-0  11065-3 0  9998","TLE_LINE2":"2 47901  53.0557  17.8593 0001230  84.0707 276.0422 15.06408704 79030","REV_AT_EPOCH":"7903","TIME_SYSTEM":"UTC","SEMIMAJOR_AXIS":"6925.322","CLASSIFICATION_TYPE":"U","MEAN_ANOMALY":"276.0422","OBJECT_TYPE":"PAYLOAD","DECAY_DATE":null,"PERIOD":"95.592","OBJECT_ID":"2021-021AT","INCLINATION":"53.0557","ECCENTRICITY":"0.00012300","NORAD_CAT_ID":"47901","ARG_OF_PERICENTER":"84.0707","MEAN_MOTION_DOT":"0.00001367","APOAPSIS":"548.039","MEAN_MOTION_DDOT":"0.0000000000000","OBJECT_NAME":"STARLINK-2361","GP_ID":"209861437","EPOCH":"2022-08-08T17:32:11.635872","LAUNCH_DATE":"2021-03-14","EPHEMERIS_TYPE":"0","RA_OF_ASC_NODE":"17.8593"},{"NORAD_CAT_ID":"47902","ARG_OF_PERICENTER":"88.7825","MEAN_MOTION_DOT":"0.00003258","ECCENTRICITY":"0.00013320","DECAY_DATE":null,"PERIOD":"95.592","OBJECT_ID":"2021-021AU","INCLINATION":"53.0562","SEMIMAJOR_AXIS":"6925.340","CLASSIFICATION_TYPE":"U","OBJECT_TYPE":"PAYLOAD","MEAN_ANOMALY":"271.3316","RA_OF_ASC_NODE":"38.4360","LAUNCH_DATE":"2021-03-14","EPHEMERIS_TYPE":"0","OBJECT_NAME":"STARLINK-2362","GP_ID":"209860185","EPOCH":"2022-08-08T13:57:12.753504","APOAPSIS":"548.127","MEAN_MOTION_DDOT":"0.0000000000000","CENTER_NAME":"EARTH","MEAN_ELEMENT_THEORY":"SGP4","MEAN_MOTION":"15.06402937","SITE":"AFETR","RCS_SIZE":"LARGE","PERIAPSIS":"546.282","COUNTRY_CODE":"US","REV_AT_EPOCH":"7884","TIME_SYSTEM":"UTC","TLE_LINE2":"2 47902  53.0562  38.4360 0001332  88.7825 271.3316 15.06402937 78843","REF_FRAME":"TEME","FILE":"3532305","BSTAR":"0.00023749000000","TLE_LINE1":"1 47902U 21021AU  22220.58139761  .00003258  00000-0  23749-3 0  9992","ELEMENT_SET_NO":"999"},{"OBJECT_TYPE":"PAYLOAD","MEAN_ANOMALY":"280.1402","CLASSIFICATION_TYPE":"U","SEMIMAJOR_AXIS":"6925.320","INCLINATION":"53.0547","OBJECT_ID":"2021-021AV","PERIOD":"95.592","DECAY_DATE":null,"ECCENTRICITY":"0.00010930","MEAN_MOTION_DOT":"0.00003595","ARG_OF_PERICENTER":"79.9711","NORAD_CAT_ID":"47903","MEAN_MOTION_DDOT":"0.0000000000000","APOAPSIS":"547.942","EPOCH":"2022-08-08T20:52:30.469440","GP_ID":"209860435","OBJECT_NAME":"STARLINK-2363","LAUNCH_DATE":"2021-03-14","EPHEMERIS_TYPE":"0","RA_OF_ASC_NODE":"17.1319","COUNTRY_CODE":"US","PERIAPSIS":"546.428","RCS_SIZE":"LARGE","SITE":"AFETR","MEAN_MOTION":"15.06409303","CENTER_NAME":"EARTH","MEAN_ELEMENT_THEORY":"SGP4","ELEMENT_SET_NO":"999","TLE_LINE1":"1 47903U 21021AV  22220.86979710  .00003595  00000-0  26001-3 0  9998","FILE":"3532305","REF_FRAME":"TEME","BSTAR":"0.00026001000000","TLE_LINE2":"2 47903  53.0547  17.1319 0001093  79.9711 280.1402 15.06409303 79406","TIME_SYSTEM":"UTC","REV_AT_EPOCH":"7940"},{"CENTER_NAME":"EARTH","MEAN_ELEMENT_THEORY":"SGP4","MEAN_MOTION":"15.06419076","SITE":"AFETR","RCS_SIZE":"LARGE","PERIAPSIS":"546.314","COUNTRY_CODE":"US","REV_AT_EPOCH":"7904","TIME_SYSTEM":"UTC","TLE_LINE2":"2 47904  53.0549  17.1601 0001215  99.5098 260.6028 15.06419076 79040","FILE":"3532305","BSTAR":"0.00043221000000","REF_FRAME":"TEME","TLE_LINE1":"1 47904U 21021AW  22220.86705061  .00006165  00000-0  43221-3 0  9994","ELEMENT_SET_NO":"999","NORAD_CAT_ID":"47904","ARG_OF_PERICENTER":"99.5098","MEAN_MOTION_DOT":"0.00006165","ECCENTRICITY":"0.00012150","PERIOD":"95.591","DECAY_DATE":null,"OBJECT_ID":"2021-021AW","INCLINATION":"53.0549","SEMIMAJOR_AXIS":"6925.290","CLASSIFICATION_TYPE":"U","OBJECT_TYPE":"PAYLOAD","MEAN_ANOMALY":"260.6028","RA_OF_ASC_NODE":"17.1601","EPHEMERIS_TYPE":"0","LAUNCH_DATE":"2021-03-14","OBJECT_NAME":"STARLINK-2364","GP_ID":"209861686","EPOCH":"2022-08-08T20:48:33.172704","APOAPSIS":"547.997","MEAN_MOTION_DDOT":"0.0000000000000"},{"TLE_LINE2":"2 47905  53.0559  17.1632 0001251  84.7964 275.3168 15.06415102 79172","FILE":"3532305","BSTAR":"0.00007487200000","REF_FRAME":"TEME","TLE_LINE1":"1 47905U 21021AX  22220.86242906  .00000834  00000-0  74872-4 0  9993","ELEMENT_SET_NO":"999","TIME_SYSTEM":"UTC","REV_AT_EPOCH":"7917","PERIAPSIS":"546.301","COUNTRY_CODE":"US","SITE":"AFETR","MEAN_MOTION":"15.06415102","MEAN_ELEMENT_THEORY":"SGP4","CENTER_NAME":"EARTH","RCS_SIZE":"LARGE","EPOCH":"2022-08-08T20:41:53.870784","OBJECT_NAME":"STARLINK-2365","GP_ID":"209861937","MEAN_MOTION_DDOT":"0.0000000000000","APOAPSIS":"548.034","RA_OF_ASC_NODE":"17.1632","EPHEMERIS_TYPE":"0","LAUNCH_DATE":"2021-03-14","INCLINATION":"53.0559","PERIOD":"95.591","DECAY_DATE":null,"OBJECT_ID":"2021-021AX","CLASSIFICATION_TYPE":"U","OBJECT_TYPE":"PAYLOAD","MEAN_ANOMALY":"275.3168","SEMIMAJOR_AXIS":"6925.302","MEAN_MOTION_DOT":"0.00000834","NORAD_CAT_ID":"47905","ARG_OF_PERICENTER":"84.7964","ECCENTRICITY":"0.00012510"},{"REV_AT_EPOCH":"8172","TIME_SYSTEM":"UTC","FILE":"3532305","BSTAR":"0.00011894000000","REF_FRAME":"TEME","ELEMENT_SET_NO":"999","TLE_LINE1":"1 47906U 21021AY  22220.63363481  .00018935  00000-0  11894-3 0  9996","TLE_LINE2":"2 47906  53.0288 192.6357 0007161 296.3401  63.6882 15.76796113 81724","RCS_SIZE":"LARGE","CENTER_NAME":"EARTH","MEAN_ELEMENT_THEORY":"SGP4","SITE":"AFETR","MEAN_MOTION":"15.76796113","COUNTRY_CODE":"US","PERIAPSIS":"334.716","EPHEMERIS_TYPE":"0","LAUNCH_DATE":"2021-03-14","RA_OF_ASC_NODE":"192.6357","APOAPSIS":"344.338","MEAN_MOTION_DDOT":"0.0000000000000","OBJECT_NAME":"STARLINK-2366","GP_ID":"209860685","EPOCH":"2022-08-08T15:12:26.047584","ECCENTRICITY":"0.00071610","NORAD_CAT_ID":"47906","ARG_OF_PERICENTER":"296.3401","MEAN_MOTION_DOT":"0.00018935","SEMIMAJOR_AXIS":"6717.662","CLASSIFICATION_TYPE":"U","OBJECT_TYPE":"PAYLOAD","MEAN_ANOMALY":"63.6882","DECAY_DATE":null,"PERIOD":"91.324","OBJECT_ID":"2021-021AY","INCLINATION":"53.0288"}];
